{
  "type": "FeatureCollection",
  "features": [
    {
      "type": "Feature",
      "properties": {
        "norad_id": 35459,
        "name": "COSMOS 2251 DEB",
        "group": "cosmos-2251-debris",
        "lat": -69.55520206359766,
        "lon": 49.74830558923647,
        "alt_km": 781.5114310714162,
        "timestamp": "2025-12-17T07:00:47.305683+00:00",
        "meta_object_name": "COSMOS 2251 DEB",
        "meta_object_id": "1993-036ALD",
        "meta_epoch": "2025-12-16T19:47:59.472960",
        "meta_mean_motion": 14.37467882,
        "meta_eccentricity": 0.00161668,
        "meta_inclination": 73.8692,
        "meta_ra_of_asc_node": 179.6909,
        "meta_arg_of_pericenter": 126.1972,
        "meta_mean_anomaly": 234.0679,
        "meta_ephemeris_type": 0,
        "meta_classification_type": "U",
        "meta_norad_cat_id": 35459,
        "meta_element_set_no": 999,
        "meta_rev_at_epoch": 58420,
        "meta_bstar": 0.0002276655,
        "meta_mean_motion_dot": 6.55e-06,
        "meta_mean_motion_ddot": 0,
        "tle_line1": "1 35459U 93036ALD 25350.82499390  .00000655  00000+0  22767-3 0  9998",
        "tle_line2": "2 35459  73.8692 179.6909 0016166 126.1972 234.0679 14.37467882584202"
      },
      "geometry": {
        "type": "Point",
        "coordinates": [
          49.74830558923647,
          -69.55520206359766
        ]
      }
    },
    {
      "type": "Feature",
      "properties": {
        "norad_id": 35462,
        "name": "COSMOS 2251 DEB",
        "group": "cosmos-2251-debris",
        "lat": -6.521043545236218,
        "lon": 82.29204703731264,
        "alt_km": 816.0015726342845,
        "timestamp": "2025-12-17T07:00:47.305693+00:00",
        "meta_object_name": "COSMOS 2251 DEB",
        "meta_object_id": "1993-036ALG",
        "meta_epoch": "2025-12-15T12:08:22.276032",
        "meta_mean_motion": 14.29319782,
        "meta_eccentricity": 0.00867718,
        "meta_inclination": 74.0367,
        "meta_ra_of_asc_node": 263.6601,
        "meta_arg_of_pericenter": 298.2214,
        "meta_mean_anomaly": 61.0193,
        "meta_ephemeris_type": 0,
        "meta_classification_type": "U",
        "meta_norad_cat_id": 35462,
        "meta_element_set_no": 999,
        "meta_rev_at_epoch": 66420,
        "meta_bstar": 0.0011070348,
        "meta_mean_motion_dot": 2.91e-05,
        "meta_mean_motion_ddot": 0,
        "tle_line1": "1 35462U 93036ALG 25349.50581338  .00002910  00000+0  11070-2 0  9999",
        "tle_line2": "2 35462  74.0367 263.6601 0086771 298.2214  61.0193 14.29319782664204"
      },
      "geometry": {
        "type": "Point",
        "coordinates": [
          82.29204703731264,
          -6.521043545236218
        ]
      }
    },
    {
      "type": "Feature",
      "properties": {
        "norad_id": 35465,
        "name": "COSMOS 2251 DEB",
        "group": "cosmos-2251-debris",
        "lat": 44.71346383138241,
        "lon": -7.967983749001161,
        "alt_km": 777.4234350973993,
        "timestamp": "2025-12-17T07:00:47.305704+00:00",
        "meta_object_name": "COSMOS 2251 DEB",
        "meta_object_id": "1993-036ALK",
        "meta_epoch": "2025-12-14T06:55:15.434976",
        "meta_mean_motion": 14.44324437,
        "meta_eccentricity": 0.00641475,
        "meta_inclination": 73.9983,
        "meta_ra_of_asc_node": 194.1379,
        "meta_arg_of_pericenter": 354.0798,
        "meta_mean_anomaly": 5.9592,
        "meta_ephemeris_type": 0,
        "meta_classification_type": "U",
        "meta_norad_cat_id": 35465,
        "meta_element_set_no": 999,
        "meta_rev_at_epoch": 87264,
        "meta_bstar": 0.00045193866,
        "meta_mean_motion_dot": 1.567e-05,
        "meta_mean_motion_ddot": 0,
        "tle_line1": "1 35465U 93036ALK 25348.28837309  .00001567  00000+0  45194-3 0  9990",
        "tle_line2": "2 35465  73.9983 194.1379 0064147 354.0798   5.9592 14.44324437872649"
      },
      "geometry": {
        "type": "Point",
        "coordinates": [
          -7.967983749001161,
          44.71346383138241
        ]
      }
    },
    {
      "type": "Feature",
      "properties": {
        "norad_id": 35469,
        "name": "COSMOS 2251 DEB",
        "group": "cosmos-2251-debris",
        "lat": 54.388663619316596,
        "lon": 38.90163120396219,
        "alt_km": 740.5730020631809,
        "timestamp": "2025-12-17T07:00:47.305714+00:00",
        "meta_object_name": "COSMOS 2251 DEB",
        "meta_object_id": "1993-036ALP",
        "meta_epoch": "2025-12-16T19:09:08.396640",
        "meta_mean_motion": 14.49823323,
        "meta_eccentricity": 0.00767476,
        "meta_inclination": 74.017,
        "meta_ra_of_asc_node": 16.2415,
        "meta_arg_of_pericenter": 170.608,
        "meta_mean_anomaly": 189.6538,
        "meta_ephemeris_type": 0,
        "meta_classification_type": "U",
        "meta_norad_cat_id": 35469,
        "meta_element_set_no": 999,
        "meta_rev_at_epoch": 88170,
        "meta_bstar": 9.0008818e-05,
        "meta_mean_motion_dot": 3.31e-06,
        "meta_mean_motion_ddot": 0,
        "tle_line1": "1 35469U 93036ALP 25350.79801385  .00000331  00000+0  90009-4 0  9992",
        "tle_line2": "2 35469  74.0170  16.2415 0076747 170.6080 189.6538 14.49823323881703"
      },
      "geometry": {
        "type": "Point",
        "coordinates": [
          38.90163120396219,
          54.388663619316596
        ]
      }
    },
    {
      "type": "Feature",
      "properties": {
        "norad_id": 35475,
        "name": "COSMOS 2251 DEB",
        "group": "cosmos-2251-debris",
        "lat": -55.29643548004555,
        "lon": 1.2356563862652172,
        "alt_km": 654.1089727110075,
        "timestamp": "2025-12-17T07:00:47.305724+00:00",
        "meta_object_name": "COSMOS 2251 DEB",
        "meta_object_id": "1993-036ALV",
        "meta_epoch": "2025-12-15T19:37:31.613664",
        "meta_mean_motion": 14.69799416,
        "meta_eccentricity": 0.00204754,
        "meta_inclination": 74.021,
        "meta_ra_of_asc_node": 159.6536,
        "meta_arg_of_pericenter": 232.5658,
        "meta_mean_anomaly": 127.365,
        "meta_ephemeris_type": 0,
        "meta_classification_type": "U",
        "meta_norad_cat_id": 35475,
        "meta_element_set_no": 999,
        "meta_rev_at_epoch": 65662,
        "meta_bstar": 0.0012278301,
        "meta_mean_motion_dot": 7.329e-05,
        "meta_mean_motion_ddot": 0,
        "tle_line1": "1 35475U 93036ALV 25349.81772701  .00007329  00000+0  12278-2 0  9993",
        "tle_line2": "2 35475  74.0210 159.6536 0020475 232.5658 127.3650 14.69799416656629"
      },
      "geometry": {
        "type": "Point",
        "coordinates": [
          1.2356563862652172,
          -55.29643548004555
        ]
      }
    },
    {
      "type": "Feature",
      "properties": {
        "norad_id": 35476,
        "name": "COSMOS 2251 DEB",
        "group": "cosmos-2251-debris",
        "lat": -2.3093172116362655,
        "lon": -127.35898900183044,
        "alt_km": 656.5572248003582,
        "timestamp": "2025-12-17T07:00:47.305735+00:00",
        "meta_object_name": "COSMOS 2251 DEB",
        "meta_object_id": "1993-036ALW",
        "meta_epoch": "2025-12-16T10:44:01.650048",
        "meta_mean_motion": 14.75757869,
        "meta_eccentricity": 0.00178208,
        "meta_inclination": 73.9785,
        "meta_ra_of_asc_node": 53.6354,
        "meta_arg_of_pericenter": 33.5399,
        "meta_mean_anomaly": 341.3795,
        "meta_ephemeris_type": 0,
        "meta_classification_type": "U",
        "meta_norad_cat_id": 35476,
        "meta_element_set_no": 999,
        "meta_rev_at_epoch": 87942,
        "meta_bstar": 0.0010478543,
        "meta_mean_motion_dot": 7.167e-05,
        "meta_mean_motion_ddot": 0,
        "tle_line1": "1 35476U 93036ALW 25350.44724132  .00007167  00000+0  10479-2 0  9991",
        "tle_line2": "2 35476  73.9785  53.6354 0017820  33.5399 341.3795 14.75757869879423"
      },
      "geometry": {
        "type": "Point",
        "coordinates": [
          -127.35898900183044,
          -2.3093172116362655
        ]
      }
    },
    {
      "type": "Feature",
      "properties": {
        "norad_id": 35580,
        "name": "COSMOS 2251 DEB",
        "group": "cosmos-2251-debris",
        "lat": -38.27951239678574,
        "lon": 4.155683496156528,
        "alt_km": 807.0099748913935,
        "timestamp": "2025-12-17T07:00:47.305745+00:00",
        "meta_object_name": "COSMOS 2251 DEB",
        "meta_object_id": "1993-036ALX",
        "meta_epoch": "2025-12-15T21:00:04.999104",
        "meta_mean_motion": 13.83885531,
        "meta_eccentricity": 0.02811057,
        "meta_inclination": 73.9013,
        "meta_ra_of_asc_node": 173.3912,
        "meta_arg_of_pericenter": 177.9882,
        "meta_mean_anomaly": 182.2449,
        "meta_ephemeris_type": 0,
        "meta_classification_type": "U",
        "meta_norad_cat_id": 35580,
        "meta_element_set_no": 999,
        "meta_rev_at_epoch": 62300,
        "meta_bstar": 0.001547595,
        "meta_mean_motion_dot": 2.307e-05,
        "meta_mean_motion_ddot": 0,
        "tle_line1": "1 35580U 93036ALX 25349.87505786  .00002307  00000+0  15476-2 0  9997",
        "tle_line2": "2 35580  73.9013 173.3912 0281105 177.9882 182.2449 13.83885531623007"
      },
      "geometry": {
        "type": "Point",
        "coordinates": [
          4.155683496156528,
          -38.27951239678574
        ]
      }
    }
  ]
}